[
    {
        "Altitude(m)": 617710.6270760893,
        "Argument of Periapsis(deg)": 0.0,
        "Eccentricity": 0.0,
        "Inclination(deg)": 60.0,
        "Latitude(deg)": -41.10262607247149,
        "Longitude(deg)": 94.96666288652763,
        "Mean Anomaly(deg)": -49.09089999999999,
        "RAAN(deg)": 225.0,
        "Satellite Name": "Test1 1009",
        "Satellite Number": 1009,
        "Semi-Major Axis(m)": 6980739.136638005,
        "Time(s)": 0
    },
    {
        "Altitude(m)": 617517.9254784836,
        "Argument of Periapsis(deg)": 0.00010418945913296404,
        "Eccentricity": 0.0,
        "Inclination(deg)": 60.0,
        "Latitude(deg)": -40.63683269590044,
        "Longitude(deg)": 95.46345570498549,
        "Mean Anomaly(deg)": -48.470793854538144,
        "RAAN(deg)": 224.99957995086024,
        "Satellite Name": "Test1 1009",
        "Satellite Number": 1009,
        "Semi-Major Axis(m)": 6980739.136638005,
        "Time(s)": 10
    },
    {
        "Altitude(m)": 617324.2467855125,
        "Argument of Periapsis(deg)": 0.0002083789182659281,
        "Eccentricity": 0.0,
        "Inclination(deg)": 60.0,
        "Latitude(deg)": -40.16851400530848,
        "Longitude(deg)": 95.95282068778846,
        "Mean Anomaly(deg)": -47.85068770907631,
        "RAAN(deg)": 224.9991599017205,
        "Satellite Name": "Test1 1009",
        "Satellite Number": 1009,
        "Semi-Major Axis(m)": 6980739.136638005,
        "Time(s)": 20
    },
    {
        "Altitude(m)": 617129.6649780169,
        "Argument of Periapsis(deg)": 0.00031256837739889213,
        "Eccentricity": 0.0,
        "Inclination(deg)": 60.0,
        "Latitude(deg)": -39.697743132293404,
        "Longitude(deg)": 96.43494228814413,
        "Mean Anomaly(deg)": -47.230581563614464,
        "RAAN(deg)": 224.99873985258074,
        "Satellite Name": "Test1 1009",
        "Satellite Number": 1009,
        "Semi-Major Axis(m)": 6980739.136638005,
        "Time(s)": 30
    },
    {
        "Altitude(m)": 616934.2542855364,
        "Argument of Periapsis(deg)": 0.0004167578365318562,
        "Eccentricity": 0.0,
        "Inclination(deg)": 60.0,
        "Latitude(deg)": -39.22459098579549,
        "Longitude(deg)": 96.91000198107014,
        "Mean Anomaly(deg)": -46.61047541815263,
        "RAAN(deg)": 224.99831980344103,
        "Satellite Name": "Test1 1009",
        "Satellite Number": 1009,
        "Semi-Major Axis(m)": 6980739.136638005,
        "Time(s)": 40
    },
    {
        "Altitude(m)": 616738.089153882,
        "Argument of Periapsis(deg)": 0.0005209472956648203,
        "Eccentricity": 0.0,
        "Inclination(deg)": 60.0,
        "Latitude(deg)": -38.749126324492835,
        "Longitude(deg)": 97.37817724020063,
        "Mean Anomaly(deg)": -45.990369272690785,
        "RAAN(deg)": 224.99789975430127,
        "Satellite Name": "Test1 1009",
        "Satellite Number": 1009,
        "Semi-Major Axis(m)": 6980739.136638005,
        "Time(s)": 50
    },
    {
        "Altitude(m)": 616541.2442125317,
        "Argument of Periapsis(deg)": 0.0006251367547977843,
        "Eccentricity": 0.0,
        "Inclination(deg)": 60.0,
        "Latitude(deg)": -38.27141582771234,
        "Longitude(deg)": 97.83964203834651,
        "Mean Anomaly(deg)": -45.37026312722895,
        "RAAN(deg)": 224.99747970516154,
        "Satellite Name": "Test1 1009",
        "Satellite Number": 1009,
        "Semi-Major Axis(m)": 6980739.136638005,
        "Time(s)": 60
    },
    {
        "Altitude(m)": 616343.7942419368,
        "Argument of Periapsis(deg)": 0.0007293262139307483,
        "Eccentricity": 0.0,
        "Inclination(deg)": 60.0,
        "Latitude(deg)": -37.79152416478641,
        "Longitude(deg)": 98.29456735781001,
        "Mean Anomaly(deg)": -44.7501569817671,
        "RAAN(deg)": 224.99705965602178,
        "Satellite Name": "Test1 1009",
        "Satellite Number": 1009,
        "Semi-Major Axis(m)": 6980739.136638005,
        "Time(s)": 70
    },
    {
        "Altitude(m)": 616145.8141407599,
        "Argument of Periapsis(deg)": 0.0008335156730637124,
        "Eccentricity": 0.0,
        "Inclination(deg)": 60.0,
        "Latitude(deg)": -37.30951406279995,
        "Longitude(deg)": 98.74312019654322,
        "Mean Anomaly(deg)": -44.13005083630527,
        "RAAN(deg)": 224.99663960688207,
        "Satellite Name": "Test1 1009",
        "Satellite Number": 1009,
        "Semi-Major Axis(m)": 6980739.136638005,
        "Time(s)": 80
    },
    {
        "Altitude(m)": 615947.3788930089,
        "Argument of Periapsis(deg)": 0.0009377051321966765,
        "Eccentricity": 0.0,
        "Inclination(deg)": 60.0,
        "Latitude(deg)": -36.82544637268562,
        "Longitude(deg)": 99.18546409493366,
        "Mean Anomaly(deg)": -43.50994469084342,
        "RAAN(deg)": 224.9962195577423,
        "Satellite Name": "Test1 1009",
        "Satellite Number": 1009,
        "Semi-Major Axis(m)": 6980739.136638005,
        "Time(s)": 90
    },
    {
        "Altitude(m)": 615748.5635351256,
        "Argument of Periapsis(deg)": 0.0010418945913296407,
        "Eccentricity": 0.0,
        "Inclination(deg)": 60.0,
        "Latitude(deg)": -36.339380133637846,
        "Longitude(deg)": 99.6217596694675,
        "Mean Anomaly(deg)": -42.88983854538159,
        "RAAN(deg)": 224.99579950860257,
        "Satellite Name": "Test1 1009",
        "Satellite Number": 1009,
        "Semi-Major Axis(m)": 6980739.136638005,
        "Time(s)": 100
    },
    {
        "Altitude(m)": 615549.4431230376,
        "Argument of Periapsis(deg)": 0.0011460840504626045,
        "Eccentricity": 0.0,
        "Inclination(deg)": 60.0,
        "Latitude(deg)": -35.851372635825626,
        "Longitude(deg)": 100.05216363959009,
        "Mean Anomaly(deg)": -42.26973239991984,
        "RAAN(deg)": 224.9953794594628,
        "Satellite Name": "Test1 1009",
        "Satellite Number": 1009,
        "Semi-Major Axis(m)": 6980739.136638005,
        "Time(s)": 110
    },
    {
        "Altitude(m)": 615350.0926991698,
        "Argument of Periapsis(deg)": 0.0012502735095955685,
        "Eccentricity": 0.0,
        "Inclination(deg)": 60.0,
        "Latitude(deg)": -35.36147948139355,
        "Longitude(deg)": 100.47682937276913,
        "Mean Anomaly(deg)": -41.649626254457914,
        "RAAN(deg)": 224.9949594103231,
        "Satellite Name": "Test1 1009",
        "Satellite Number": 1009,
        "Semi-Major Axis(m)": 6980739.136638005,
        "Time(s)": 120
    },
    {
        "Altitude(m)": 615150.5872594228,
        "Argument of Periapsis(deg)": 0.0013544629687285324,
        "Eccentricity": 0.0,
        "Inclination(deg)": 60.0,
        "Latitude(deg)": -34.869754643750326,
        "Longitude(deg)": 100.89590743421064,
        "Mean Anomaly(deg)": -41.02952010899616,
        "RAAN(deg)": 224.99453936118334,
        "Satellite Name": "Test1 1009",
        "Satellite Number": 1009,
        "Semi-Major Axis(m)": 6980739.136638005,
        "Time(s)": 130
    },
    {
        "Altitude(m)": 614951.0017202067,
        "Argument of Periapsis(deg)": 0.0014586524278614966,
        "Eccentricity": 0.0,
        "Inclination(deg)": 60.0,
        "Latitude(deg)": -34.37625052514682,
        "Longitude(deg)": 101.3095446277447,
        "Mean Anomaly(deg)": -40.409413963534334,
        "RAAN(deg)": 224.9941193120436,
        "Satellite Name": "Test1 1009",
        "Satellite Number": 1009,
        "Semi-Major Axis(m)": 6980739.136638005,
        "Time(s)": 140
    },
    {
        "Altitude(m)": 614751.4108854153,
        "Argument of Periapsis(deg)": 0.0015628418869944607,
        "Eccentricity": 0.0,
        "Inclination(deg)": 60.0,
        "Latitude(deg)": -33.881018012558194,
        "Longitude(deg)": 101.71788455305737,
        "Mean Anomaly(deg)": -39.78930781807248,
        "RAAN(deg)": 224.99369926290385,
        "Satellite Name": "Test1 1009",
        "Satellite Number": 1009,
        "Semi-Major Axis(m)": 6980739.136638005,
        "Time(s)": 150
    },
    {
        "Altitude(m)": 614551.8894135104,
        "Argument of Periapsis(deg)": 0.0016670313461274247,
        "Eccentricity": 0.0,
        "Inclination(deg)": 60.0,
        "Latitude(deg)": -33.384106531884,
        "Longitude(deg)": 102.12106816589132,
        "Mean Anomaly(deg)": -39.169201672610654,
        "RAAN(deg)": 224.99327921376414,
        "Satellite Name": "Test1 1009",
        "Satellite Number": 1009,
        "Semi-Major Axis(m)": 6980739.136638005,
        "Time(s)": 160
    },
    {
        "Altitude(m)": 614352.5117845832,
        "Argument of Periapsis(deg)": 0.0017712208052603888,
        "Eccentricity": 0.0,
        "Inclination(deg)": 60.0,
        "Latitude(deg)": -32.88556410048807,
        "Longitude(deg)": 102.51923282787855,
        "Mean Anomaly(deg)": -38.5490955271489,
        "RAAN(deg)": 224.9928591646244,
        "Satellite Name": "Test1 1009",
        "Satellite Number": 1009,
        "Semi-Major Axis(m)": 6980739.136638005,
        "Time(s)": 170
    },
    {
        "Altitude(m)": 614153.352267535,
        "Argument of Periapsis(deg)": 0.001875410264393353,
        "Eccentricity": 0.0,
        "Inclination(deg)": 60.0,
        "Latitude(deg)": -32.38543737810307,
        "Longitude(deg)": 102.91251287133059,
        "Mean Anomaly(deg)": -37.92898938168697,
        "RAAN(deg)": 224.99243911548464,
        "Satellite Name": "Test1 1009",
        "Satellite Number": 1009,
        "Semi-Major Axis(m)": 6980739.136638005,
        "Time(s)": 180
    },
    {
        "Altitude(m)": 613954.4848872962,
        "Argument of Periapsis(deg)": 0.0019795997235263173,
        "Eccentricity": 0.0,
        "Inclination(deg)": 60.0,
        "Latitude(deg)": -31.883771716129278,
        "Longitude(deg)": 103.30104016573446,
        "Mean Anomaly(deg)": -37.30888323622522,
        "RAAN(deg)": 224.99201906634488,
        "Satellite Name": "Test1 1009",
        "Satellite Number": 1009,
        "Semi-Major Axis(m)": 6980739.136638005,
        "Time(s)": 190
    }
]